NUSAT-1 (FRESCO)        
1 41557U 16033B   22102.10338171  .00015974  00000+0  50482-3 0  9993
2 41557  97.3837 199.7941 0010687 250.2872 230.5225 15.32835833327214
BEESAT-4                
1 41619U 16040W   22101.67286199  .00015326  00000+0  54418-3 0  9997
2 41619  97.2258 154.1527 0009240   4.4941 355.6381 15.29084761310512
CAS-2T & KS-1Q          
1 41847U 16066G   22101.77946098  .00001055  00000+0  16699-3 0  9993
2 41847  98.5571 166.5024 0365054  49.4169 313.8189 14.38480815284763
NAYIF-1 (EO-88)         
1 42017U 17008BX  22102.13773290  .00017994  00000+0  57873-3 0  9991
2 42017  97.2754 169.3039 0006763 122.4202 237.7695 15.32278989286915
ZHUHAI-1 02 (CAS-4B)    
1 42759U 17034B   22102.18033829  .00004830  00000+0  29422-3 0  9999
2 42759  43.0183 337.8536 0009584 237.2292 269.1789 15.11333115266321
ZHUHAI-1 01 (CAS-4A)    
1 42761U 17034D   22102.15311757  .00005145  00000+0  31171-3 0  9992
2 42761  43.0183 336.8395 0010450 234.2200 267.2152 15.11419865266326
MAX VALIER SAT          
1 42778U 17036P   22102.11165593  .00007460  00000+0  29462-3 0  9995
2 42778  97.2148 145.5189 0011112 191.8094 168.2885 15.25739009266780
RADFXSAT (FOX-1B)       
1 43017U 17073E   22101.76155872  .00005863  00000+0  44321-3 0  9998
2 43017  97.6828 358.6741 0251941  46.4176 315.7651 14.80786498237242
FOX-1D (AO-92)          
1 43137U 18004AC  22101.78680363  .00010643  00000+0  39288-3 0  9994
2 43137  97.3725 177.6025 0007108 230.0477 130.0139 15.27918048236160
DIWATA-2B               
1 43678U 18084H   22102.12660754  .00002123  00000+0  21482-3 0  9994
2 43678  97.9588 234.6654 0011223 139.4438 220.7600 14.92031643187968
ES'HAIL 2               
1 43700U 18090A   22102.13564878  .00000144  00000+0  00000+0 0  9998
2 43700   0.0211 201.6813 0002371 207.6830 225.5788  1.00269737 12601
FOX-1CLIFF (AO-95)      
1 43770U 18099N   22101.64823622  .00003059  00000+0  27693-3 0  9993
2 43770  97.6257 169.7333 0015350 137.0211 223.2212 14.96037354183020
ITASAT 1                
1 43786U 18099AE  22102.18420427  .00002762  00000+0  24913-3 0  9998
2 43786  97.6279 171.1353 0016076 128.6391 231.6272 14.96241622183148
JY1SAT (JO-97)          
1 43803U 18099AX  22101.75399053  .00003137  00000+0  27939-3 0  9998
2 43803  97.6257 170.4575 0016182 127.9386 232.3301 14.96651471183098
UWE-4                   
1 43880U 18111E   22101.73440333  .00003231  00000+0  28034-3 0  9996
2 43880  97.6716   9.2161 0012046 178.7956 181.3297 14.97699166179710
NEXUS (FO-99)           
1 43937U 19003F   22101.64841707  .00014321  00000+0  50817-3 0  9996
2 43937  97.1394 137.6519 0022081  37.6254 322.6526 15.28922822179760
PSAT2 (NO-104)          
1 44354U 19036R   22101.84008747  .00043678 -59564-5  44170-3 0  9995
2 44354  28.5267 277.1522 0259112 304.8852  52.7644 15.31421250154437
BRICSAT2 (NO-103)       
1 44355U 19036S   22102.19029936  .00864650  32550-3  13536-2 0  9993
2 44355  28.5142 144.6718 0066402 158.1814 202.1648 15.98493241155765
JAISAT-1                
1 44419U 19038F   22101.87126218  .00009709  00000+0  50499-3 0  9998
2 44419  97.6299  71.5417 0019956   8.7070 351.4505 15.16094038152966
DUCHIFAT-3              
1 44854U 19089C   22102.11616940  .00004557  00000+0  36043-3 0  9996
2 44854  36.9639 133.4632 0007369  35.4966 359.4320 15.00532404127968
CAS-6 (TO-108)          
1 44881U 19093C   22102.05960776  .00001212  00000+0  16048-3 0  9991
2 44881  97.8941 182.2204 0015763  47.3508 312.9044 14.81636319124948
RS-44 & BREEZE-KM R/B   
1 44909U 19096E   22101.81493179  .00000043  00000+0  12015-3 0  9997
2 44909  82.5170 274.5500 0218340 115.4631 246.9235 12.79713148106981
ORBITAL FACTORY 2 (OF-2)
1 45113U 19071C   22101.81951692  .00025824  00000+0  60487-3 0  9997
2 45113  51.6403  26.3810 0008269 292.6414  67.3697 15.41896748123083
HUSKYSAT-1 (HO-107)     
1 45119U 19071J   22101.34005832  .00026432  00000+0  63032-3 0  9992
2 45119  51.6407  28.4104 0008138 286.9124  73.0969 15.41344278123005
BY70-2                  
1 45857U 20042B   22102.20697047  .00008354  00000+0  11416-2 0  9993
2 45857  97.9553 179.7281 0008971 334.6746  25.4020 14.78797781 95660
SALSAT                  
1 46495U 20068K   22101.78033038  .00003312  00000+0  24257-3 0  9993
2 46495  97.7241  43.1002 0017576 139.7285 220.5246 15.04143697 84161
BY70-3                  
1 46839U 20079N   22102.12015999  .00027956  00000+0  72600-3 0  9997
2 46839  97.2033 175.2135 0006398 199.9037 247.5324 15.38910579 80030
RADFXSAT-2 (AO-109)     
1 47311U 21002C   22101.84192112  .00008973  00000+0  37718-3 0  9990
2 47311  60.6847 252.7717 0012567 236.7102 123.2783 15.24042007 68300
UVSQ-SAT                
1 47438U 21006AB  22101.71463836  .00007813  00000+0  42360-3 0  9995
2 47438  97.4447 162.1140 0013316 142.5354 217.6809 15.14775497 67170
DIY-1 (ARDUIQUBE)       
1 47963U 21022AH  22101.72048738  .00018638  00000+0  11084-2 0  9992
2 47963  97.5383   3.9465 0018197  11.1010 349.0618 15.11166657 56868
XW-3 (CAS-9)            
1 50466U 21131B   22102.16188363  .00000250  00000+0  96609-4 0  9992
2 50466  98.5827 179.4421 0004082   3.3432 356.7782 14.38464180 15383
